{
  "type": "FeatureCollection",
  "features": [
    {
      "type": "Feature",
      "properties": {
        "norad_id": 40069,
        "name": "METEOR-M 2",
        "group": "weather",
        "lat": 1.5673606396513997,
        "lon": 158.81757214790028,
        "alt_km": 819.3760543902599,
        "timestamp": "2025-12-27T13:34:48.932713+00:00",
        "meta_object_name": "METEOR-M 2",
        "meta_object_id": "2014-037A",
        "meta_epoch": "2025-12-27T05:59:11.243616",
        "meta_mean_motion": 14.21392452,
        "meta_eccentricity": 0.00057131,
        "meta_inclination": 98.4923,
        "meta_ra_of_asc_node": 338.279,
        "meta_arg_of_pericenter": 164.9701,
        "meta_mean_anomaly": 195.1647,
        "meta_ephemeris_type": 0,
        "meta_classification_type": "U",
        "meta_norad_cat_id": 40069,
        "meta_element_set_no": 999,
        "meta_rev_at_epoch": 59489,
        "meta_bstar": 0.00012959203,
        "meta_mean_motion_dot": 2.41e-06,
        "meta_mean_motion_ddot": 0,
        "tle_line1": "1 40069U 14037A   25361.24943569  .00000241  00000+0  12959-3 0  9998",
        "tle_line2": "2 40069  98.4923 338.2790 0005713 164.9701 195.1647 14.21392452594893"
      },
      "geometry": {
        "type": "Point",
        "coordinates": [
          158.81757214790028,
          1.5673606396513997
        ]
      }
    },
    {
      "type": "Feature",
      "properties": {
        "norad_id": 40267,
        "name": "HIMAWARI-8",
        "group": "weather",
        "lat": -0.010857315905970274,
        "lon": 80.65940988635867,
        "alt_km": 35789.58725841651,
        "timestamp": "2025-12-27T13:34:48.932726+00:00",
        "meta_object_name": "HIMAWARI-8",
        "meta_object_id": "2014-060A",
        "meta_epoch": "2025-12-26T08:33:59.245344",
        "meta_mean_motion": 1.0027063,
        "meta_eccentricity": 0.000101,
        "meta_inclination": 0.0427,
        "meta_ra_of_asc_node": 196.506,
        "meta_arg_of_pericenter": 108.6661,
        "meta_mean_anomaly": 59.0936,
        "meta_ephemeris_type": 0,
        "meta_classification_type": "U",
        "meta_norad_cat_id": 40267,
        "meta_element_set_no": 999,
        "meta_rev_at_epoch": 4102,
        "meta_bstar": 0,
        "meta_mean_motion_dot": -2.54e-06,
        "meta_mean_motion_ddot": 0,
        "tle_line1": "1 40267U 14060A   25360.35693571 -.00000254  00000+0  00000+0 0  9995",
        "tle_line2": "2 40267   0.0427 196.5060 0001010 108.6661  59.0936  1.00270630 41029"
      },
      "geometry": {
        "type": "Point",
        "coordinates": [
          80.65940988635867,
          -0.010857315905970274
        ]
      }
    },
    {
      "type": "Feature",
      "properties": {
        "norad_id": 40367,
        "name": "FENGYUN 2G",
        "group": "weather",
        "lat": -3.0190872426671262,
        "lon": 39.435826909648554,
        "alt_km": 35790.80055426656,
        "timestamp": "2025-12-27T13:34:48.932739+00:00",
        "meta_object_name": "FENGYUN 2G",
        "meta_object_id": "2014-090A",
        "meta_epoch": "2025-12-27T01:29:24.780768",
        "meta_mean_motion": 1.00281225,
        "meta_eccentricity": 0.00018247,
        "meta_inclination": 5.2014,
        "meta_ra_of_asc_node": 74.9206,
        "meta_arg_of_pericenter": 170.6218,
        "meta_mean_anomaly": 331.9129,
        "meta_ephemeris_type": 0,
        "meta_classification_type": "U",
        "meta_norad_cat_id": 40367,
        "meta_element_set_no": 999,
        "meta_rev_at_epoch": 4027,
        "meta_bstar": 0,
        "meta_mean_motion_dot": -2.81e-06,
        "meta_mean_motion_ddot": 0,
        "tle_line1": "1 40367U 14090A   25361.06209237 -.00000281  00000+0  00000+0 0  9990",
        "tle_line2": "2 40367   5.2014  74.9206 0001824 170.6218 331.9129  1.00281225 40274"
      },
      "geometry": {
        "type": "Point",
        "coordinates": [
          39.435826909648554,
          -3.0190872426671262
        ]
      }
    },
    {
      "type": "Feature",
      "properties": {
        "norad_id": 40732,
        "name": "METEOSAT-11 (MSG-4)",
        "group": "weather",
        "lat": -2.348045323947932,
        "lon": -50.84440038397009,
        "alt_km": 35786.80266326979,
        "timestamp": "2025-12-27T13:34:48.932751+00:00",
        "meta_object_name": "METEOSAT-11 (MSG-4)",
        "meta_object_id": "2015-034A",
        "meta_epoch": "2025-12-27T04:29:09.250368",
        "meta_mean_motion": 1.00272015,
        "meta_eccentricity": 6.535e-05,
        "meta_inclination": 2.7726,
        "meta_ra_of_asc_node": 71.9621,
        "meta_arg_of_pericenter": 136.4187,
        "meta_mean_anomaly": 324.0135,
        "meta_ephemeris_type": 0,
        "meta_classification_type": "U",
        "meta_norad_cat_id": 40732,
        "meta_element_set_no": 999,
        "meta_rev_at_epoch": 549,
        "meta_bstar": 0,
        "meta_mean_motion_dot": 8.3e-07,
        "meta_mean_motion_ddot": 0,
        "tle_line1": "1 40732U 15034A   25361.18691262  .00000083  00000+0  00000+0 0  9990",
        "tle_line2": "2 40732   2.7726  71.9621 0000653 136.4187 324.0135  1.00272015  5496"
      },
      "geometry": {
        "type": "Point",
        "coordinates": [
          -50.84440038397009,
          -2.348045323947932
        ]
      }
    },
    {
      "type": "Feature",
      "properties": {
        "norad_id": 41105,
        "name": "ELEKTRO-L 2",
        "group": "weather",
        "lat": -3.4112056093274274,
        "lon": -74.62595269153921,
        "alt_km": 35771.04806197335,
        "timestamp": "2025-12-27T13:34:48.932764+00:00",
        "meta_object_name": "ELEKTRO-L 2",
        "meta_object_id": "2015-074A",
        "meta_epoch": "2025-12-27T00:56:52.317888",
        "meta_mean_motion": 1.00271623,
        "meta_eccentricity": 0.00036905,
        "meta_inclination": 6.2593,
        "meta_ra_of_asc_node": 72.658,
        "meta_arg_of_pericenter": 207.3207,
        "meta_mean_anomaly": 175.545,
        "meta_ephemeris_type": 0,
        "meta_classification_type": "U",
        "meta_norad_cat_id": 41105,
        "meta_element_set_no": 999,
        "meta_rev_at_epoch": 3678,
        "meta_bstar": 0,
        "meta_mean_motion_dot": -9.7e-07,
        "meta_mean_motion_ddot": 0,
        "tle_line1": "1 41105U 15074A   25361.03949442 -.00000097  00000+0  00000+0 0  9995",
        "tle_line2": "2 41105   6.2593  72.6580 0003690 207.3207 175.5450  1.00271623 36788"
      },
      "geometry": {
        "type": "Point",
        "coordinates": [
          -74.62595269153921,
          -3.4112056093274274
        ]
      }
    },
    {
      "type": "Feature",
      "properties": {
        "norad_id": 41752,
        "name": "INSAT-3DR",
        "group": "weather",
        "lat": -0.036589575881386394,
        "lon": 14.143059635755995,
        "alt_km": 35798.700188120936,
        "timestamp": "2025-12-27T13:34:48.932775+00:00",
        "meta_object_name": "INSAT-3DR",
        "meta_object_id": "2016-054A",
        "meta_epoch": "2025-12-27T01:22:12.392832",
        "meta_mean_motion": 1.00271416,
        "meta_eccentricity": 0.0014402,
        "meta_inclination": 0.042,
        "meta_ra_of_asc_node": 85.462,
        "meta_arg_of_pericenter": 186.7324,
        "meta_mean_anomaly": 278.1407,
        "meta_ephemeris_type": 0,
        "meta_classification_type": "U",
        "meta_norad_cat_id": 41752,
        "meta_element_set_no": 999,
        "meta_rev_at_epoch": 3409,
        "meta_bstar": 0,
        "meta_mean_motion_dot": -5.5e-07,
        "meta_mean_motion_ddot": 0,
        "tle_line1": "1 41752U 16054A   25361.05708788 -.00000055  00000+0  00000+0 0  9994",
        "tle_line2": "2 41752   0.0420  85.4620 0014402 186.7324 278.1407  1.00271416 34091"
      },
      "geometry": {
        "type": "Point",
        "coordinates": [
          14.143059635755995,
          -0.036589575881386394
        ]
      }
    },
    {
      "type": "Feature",
      "properties": {
        "norad_id": 41836,
        "name": "HIMAWARI-9",
        "group": "weather",
        "lat": 0.011219372975935994,
        "lon": 80.76706127450721,
        "alt_km": 35791.09763570884,
        "timestamp": "2025-12-27T13:34:48.932788+00:00",
        "meta_object_name": "HIMAWARI-9",
        "meta_object_id": "2016-064A",
        "meta_epoch": "2025-12-27T06:49:10.839936",
        "meta_mean_motion": 1.00267784,
        "meta_eccentricity": 9.489e-05,
        "meta_inclination": 0.0135,
        "meta_ra_of_asc_node": 82.1147,
        "meta_arg_of_pericenter": 194.3858,
        "meta_mean_anomaly": 62.5887,
        "meta_ephemeris_type": 0,
        "meta_classification_type": "U",
        "meta_norad_cat_id": 41836,
        "meta_element_set_no": 999,
        "meta_rev_at_epoch": 3348,
        "meta_bstar": 0,
        "meta_mean_motion_dot": -2.53e-06,
        "meta_mean_motion_ddot": 0,
        "tle_line1": "1 41836U 16064A   25361.28415324 -.00000253  00000+0  00000+0 0  9994",
        "tle_line2": "2 41836   0.0135  82.1147 0000948 194.3858  62.5887  1.00267784 33484"
      },
      "geometry": {
        "type": "Point",
        "coordinates": [
          80.76706127450721,
          0.011219372975935994
        ]
      }
    }
  ]
}